COSMOS 2433 [GLONASS-M] 
1 32275U 07052A   26128.02875568 -.00000019  00000+0  00000+0 0  9992
2 32275  65.5998 317.2851 0001137 189.0430 170.9713  2.13104352144207
COSMOS 2432 [GLONASS-M] 
1 32276U 07052B   26128.57317882 -.00000016  00000+0  00000+0 0  9990
2 32276  65.6155 317.3938 0008684 337.8257  23.8743  2.13103419144241
COSMOS 2434 [GLONASS-M] 
1 32393U 07065A   26128.16975312  .00000029  00000+0  00000+0 0  9990
2 32393  64.3158 193.2655 0001355  53.1564 305.0560  2.13101569142912
COSMOS 2436 [GLONASS-M] 
1 32395U 07065C   26127.14265252  .00000028  00000+0  00000+0 0  9993
2 32395  64.3241 193.3717 0017190 357.9055  64.8346  2.13100394142851
COSMOS 2456 [GLONASS-M] 
1 36111U 09070A   26128.17388148  .00000011  00000+0  00000+0 0  9997
2 36111  64.9894  72.3358 0005922 318.6806 200.6137  2.13103809127570
COSMOS 2457 [GLONASS-M] 
1 36112U 09070B   26128.48036987  .00000011  00000+0  00000+0 0  9993
2 36112  64.9753  72.1699 0001372 154.0317   8.1648  2.13101274127588
COSMOS 2460 [GLONASS-M] 
1 36402U 10007C   26127.56024126 -.00000020  00000+0  00000+0 0  9998
2 36402  65.4441 315.8409 0002334  73.0027 105.0928  2.13106390125864
COSMOS 2476 [GLONASS-M] 
1 37867U 11064A   26129.13308958  .00000017  00000+0  00000+0 0  9996
2 37867  65.2492  74.1890 0023862 241.6054 201.9029  2.13103920112933
COSMOS 2477 [GLONASS-M] 
1 37868U 11064B   26128.47258394  .00000016  00000+0  00000+0 0  9990
2 37868  65.2554  74.2900 0020948 243.2889 233.9565  2.13103081112918
COSMOS 2485 [GLONASS-M] 
1 39155U 13019A   26128.96145381  .00000019  00000+0  00000+0 0  9991
2 39155  65.3994  74.9198 0024215 236.9951 122.7618  2.13103363101447
COSMOS 2500 [GLONASS-M] 
1 40001U 14032A   26124.86737580 -.00000038  00000+0  00000+0 0  9994
2 40001  65.2580 315.1586 0005921 181.5798 178.4292  2.13106109 92533
COSMOS 2501 [GLONASS-K] 
1 40315U 14075A   26128.41370059  .00000031  00000+0  00000+0 0  9990
2 40315  63.6143 191.7486 0022044 210.4352 149.5097  2.13101478 89002
COSMOS 2514 [GLONASS-M] 
1 41330U 16008A   26128.86735558 -.00000013  00000+0  00000+0 0  9995
2 41330  65.0453 314.3560 0009863 197.2101 162.7703  2.13102730 79781
COSMOS 2522 [GLONASS-M] 
1 42939U 17055A   26128.23597557  .00000029  00000+0  00000+0 0  9996
2 42939  64.0764 193.2437 0009694 237.1400 122.8395  2.13102013 67129
COSMOS 2529 [GLONASS-M] 
1 43687U 18086A   26128.29418473  .00000028  00000+0  00000+0 0  9996
2 43687  64.2929 193.9409 0010749 255.3915 104.5617  2.13102207 58430
COSMOS 2534 [GLONASS-M] 
1 44299U 19030A   26128.58080005  .00000029  00000+0  00000+0 0  9995
2 44299  64.3663 193.9497 0012325 276.0690  78.3021  2.13102588 54070
COSMOS 2544 [GLONASS-M] 
1 44850U 19088A   26128.61134131  .00000019  00000+0  00000+0 0  9994
2 44850  65.5448  75.0507 0014629 261.5507  98.2725  2.13102102 49870
COSMOS 2545 [GLONASS-M] 
1 45358U 20018A   26127.86810108 -.00000019  00000+0  00000+0 0  9995
2 45358  64.3797 313.8358 0007177 236.2540 123.6887  2.13102735 47806
COSMOS 2547 [GLONASS-K] 
1 46805U 20075A   26125.24171473  .00000033  00000+0  00000+0 0  9996
2 46805  64.5969 193.9081 0008440 236.6486 123.3485  2.13100494 42990
COSMOS 2557 [GLONASS-K] 
1 52984U 22075A   26124.46778403 -.00000043  00000+0  00000+0 0  9994
2 52984  64.3237 316.0251 0010121 280.7053  79.1925  2.13102174 29783
COSMOS 2564 [GLONASS-M] 
1 54377U 22161A   26128.35406317  .00000028  00000+0  00000+0 0  9994
2 54377  64.7390 194.0336 0011393 221.3667 138.6192  2.13102038 26780
COSMOS 2569 [GLONASS-K2]
1 57517U 23114A   26128.36648528  .00000015  00000+0  00000+0 0  9991
2 57517  65.2810  73.9627 0012078 295.8955  63.9692  2.13103824 21411
COSMOS 2584 [GLONASS-K2]
1 63130U 25042A   26128.25337672  .00000015  00000+0  00000+0 0  9994
2 63130  65.0631  74.1590 0006471 235.6601 124.2674  2.13103808  9194
COSMOS 2596 [GLONASS-K1]
1 65590U 25206B   26128.57317766 -.00000017  00000+0  00000+0 0  9998
2 65590  64.6585 316.3650 0011483 316.3933  45.6732  2.13100763  5072
